{
  "type": "FeatureCollection",
  "features": [
    {
      "type": "Feature",
      "properties": { "layer": "far", "name": "Teton crest" },
      "geometry": {
        "type": "LineString",
        "coordinates": [
          [-110.91, 43.57],
          [-110.88, 43.64],
          [-110.83, 43.70],
          [-110.81, 43.73],
          [-110.80, 43.75],
          [-110.77, 43.84],
          [-110.78, 43.91],
          [-110.76, 43.94]
        ]
      }
    },
    {
      "type": "Feature",
      "properties": { "layer": "near", "name": "East of Jackson Hole" },
      "geometry": {
        "type": "LineString",
        "coordinates": [
          [-110.31, 43.62],
          [-110.30, 43.67],
          [-110.37, 43.71],
          [-110.28, 43.75],
          [-110.35, 43.87],
          [-110.32, 43.93]
        ]
      }
    }
  ]
}
